{
    "links": {
        "self": "http://www.neowsapp.com/rest/v1/neo/3989214?api_key=iIulBulltgU6a56xZRHN4H3l9WmuAYTsLGpBGhQ2"
    },
    "id": "3989214",
    "neo_reference_id": "3989214",
    "name": "(2020 BO9)",
    "designation": "2020 BO9",
    "nasa_jpl_url": "http://ssd.jpl.nasa.gov/sbdb.cgi?sstr=3989214",
    "absolute_magnitude_h": 23.637,
    "estimated_diameter": {
        "kilometers": {
            "estimated_diameter_min": 0.0497914733,
            "estimated_diameter_max": 0.1113371189
        },
        "meters": {
            "estimated_diameter_min": 49.7914732572,
            "estimated_diameter_max": 111.3371189029
        },
        "miles": {
            "estimated_diameter_min": 0.0309389775,
            "estimated_diameter_max": 0.0691816569
        },
        "feet": {
            "estimated_diameter_min": 163.3578571211,
            "estimated_diameter_max": 365.2792731814
        }
    },
    "is_potentially_hazardous_asteroid": false,
    "close_approach_data": [
        {
            "close_approach_date": "1931-02-06",
            "close_approach_date_full": "1931-Feb-06 16:10",
            "epoch_date_close_approach": -1227599400000,
            "relative_velocity": {
                "kilometers_per_second": "14.303949135",
                "kilometers_per_hour": "51494.2168861019",
                "miles_per_hour": "31996.5038201448"
            },
            "miss_distance": {
                "astronomical": "0.047892823",
                "lunar": "18.630308147",
                "kilometers": "7164664.30908701",
                "miles": "4451915.963580338"
            },
            "orbiting_body": "Earth"
        },
        {
            "close_approach_date": "2020-02-14",
            "close_approach_date_full": "2020-Feb-14 01:28",
            "epoch_date_close_approach": 1581643680000,
            "relative_velocity": {
                "kilometers_per_second": "13.1180100688",
                "kilometers_per_hour": "47224.8362475598",
                "miles_per_hour": "29343.676722824"
            },
            "miss_distance": {
                "astronomical": "0.076107511",
                "lunar": "29.605821779",
                "kilometers": "11385521.53660157",
                "miles": "7074635.027658866"
            },
            "orbiting_body": "Earth"
        }
    ],
    "orbital_data": {
        "orbit_id": "3",
        "orbit_determination_date": "2020-02-05 05:24:40",
        "first_observation_date": "2020-01-25",
        "last_observation_date": "2020-02-04",
        "data_arc_in_days": 10,
        "observations_used": 25,
        "orbit_uncertainty": "8",
        "minimum_orbit_intersection": ".0393352",
        "jupiter_tisserand_invariant": "3.456",
        "epoch_osculation": "2458874.5",
        "eccentricity": ".6193382729081256",
        "semi_major_axis": "2.115513133747334",
        "inclination": "5.435855806214207",
        "ascending_node_longitude": "160.6861187220145",
        "orbital_period": "1123.885364408027",
        "perihelion_distance": ".8052948831778037",
        "perihelion_argument": "32.9488743921487",
        "aphelion_distance": "3.425731384316864",
        "perihelion_time": "2458927.461334764741",
        "mean_anomaly": "343.0355647300833",
        "mean_motion": ".3203173663442261",
        "equinox": "J2000",
        "orbit_class": {
            "orbit_class_type": "APO",
            "orbit_class_description": "Near-Earth asteroid orbits which cross the Earth’s orbit similar to that of 1862 Apollo",
            "orbit_class_range": "a (semi-major axis) > 1.0 AU; q (perihelion) < 1.017 AU"
        }
    },
    "is_sentry_object": false
}